NORAD_CAT_ID,OBJECT_NAME,OBJECT_TYPE,EPOCH,MEAN_MOTION,ECCENTRICITY,INCLINATION,RA_OF_ASC_NODE,ARG_OF_PERICENTER,MEAN_ANOMALY,BSTAR,MEAN_MOTION_DOT,MEAN_MOTION_DDOT,TLE_LINE0,TLE_LINE1,TLE_LINE2,SEMIMAJOR_AXIS,PERIOD,APOGEE,PERIGEE,DECAYED
52339.0,STARLINK-3792,PAYLOAD,2022-06-07 22:00:00,15.45195436,0.0001527,53.2173,245.7684,52.5448,169.43900000000005,-0.016217,-0.00723261,0.0,0 STARLINK-3792,1 52339U 22045J   22158.91667824 -.00723261  00000-0 -16217-1 0  9997,2 52339  53.2173 245.7684 0001527  52.5448 169.4390 15.45195436  1303,6808.941,93.192,431.846,429.766,0.0
52339.0,STARLINK-3792,PAYLOAD,2022-06-08 06:00:02,15.44683698,0.0001669,53.2176,244.1865,42.4994,234.5148,-0.016395,-0.0071884,0.0,0 STARLINK-3792,1 52339U 22045J   22159.25002315 -.00718840  00000-0 -16395-1 0  9997,2 52339  53.2176 244.1865 0001669  42.4994 234.5148 15.44683698  8708,6810.445,93.223,433.446,431.173,0.0
52339.0,STARLINK-3792,PAYLOAD,2022-06-08 14:00:01,15.44175031,0.000159,53.2174,242.6088,41.536,289.7649,-0.016769,-0.00722267,0.0,0 STARLINK-3792,1 52339U 22045J   22159.58334491 -.00722267  00000-0 -16769-1 0  9999,2 52339  53.2174 242.6088 0001590  41.5360 289.7649 15.44175031  1300,6811.94,93.254,434.888,432.722,0.0
52339.0,STARLINK-3792,PAYLOAD,2022-06-08 22:00:01,15.43664545,0.00014,53.2174,241.0289,44.5932,340.5127,-0.0170419999999999,-0.00721401,0.0,0 STARLINK-3792,1 52339U 22045J   22159.91668981 -.00721401  00000-0 -17042-1 0  9994,2 52339  53.2174 241.0289 0001400  44.5932 340.5127 15.43664545  1303,6813.441999999999,93.285,436.261,434.353,0.0
52339.0,STARLINK-3792,PAYLOAD,2022-06-09 06:00:00,15.43152992,0.0001612,53.2174,239.4509,39.6623,38.5071,-0.017256,-0.00718169,0.0,0 STARLINK-3792,1 52339U 22045J   22160.25001157 -.00718169  00000-0 -17256-1 0  9993,2 52339  53.2174 239.4509 0001612  39.6623  38.5071 15.43152992  8864,6814.948,93.315,437.911,435.714,0.0
52339.0,STARLINK-3792,PAYLOAD,2022-06-09 14:00:01,15.42643541,0.0001788,53.2174,237.8767,38.2535,92.4286,-0.017587,-0.00719365,0.0,0 STARLINK-3792,1 52339U 22045J   22160.58334491 -.00719365  00000-0 -17587-1 0  9995,2 52339  53.2174 237.8767 0001788  38.2535  92.4286 15.42643541  1306,6816.448,93.346,439.532,437.094,0.0
52339.0,STARLINK-3792,PAYLOAD,2022-06-09 22:00:00,15.42134984,0.000159,53.2174,236.3003,48.0042,134.5796,-0.01795,-0.00721521,0.0,0 STARLINK-3792,1 52339U 22045J   22160.91667824 -.00721521  00000-0 -17950-1 0  9992,2 52339  53.2174 236.3003 0001590  48.0042 134.5796 15.42134984  1306,6817.946,93.377,440.895,438.727,0.0
52339.0,STARLINK-3792,PAYLOAD,2022-06-10 08:00:01,15.41496922,0.0001501,53.2176,234.3331,44.147,292.4519,-0.018311,-0.0072048999999999,0.0,0 STARLINK-3792,1 52339U 22045J   22161.33334491 -.00720490  00000-0 -18311-1 0  9996,2 52339  53.2176 234.3331 0001501  44.1470 292.4519 15.41496922  9020,6819.828,93.416,442.716,440.669,0.0
52339.0,STARLINK-3792,PAYLOAD,2022-06-10 14:00:01,15.41113562,0.0001714,53.2176,233.1551,41.8067,242.7409,-0.018493,-0.00718561,0.0,0 STARLINK-3792,1 52339U 22045J   22161.58334491 -.00718561  00000-0 -18493-1 0  9990,2 52339  53.2176 233.1551 0001714  41.8067 242.7409 15.41113562  1308,6820.959,93.439,443.99300000000005,441.654,0.0
52339.0,STARLINK-3792,PAYLOAD,2022-06-10 22:00:00,15.40605521,0.0001449,53.2176,231.5822,45.8673,288.744,-0.018926,-0.00722648,0.0,0 STARLINK-3792,1 52339U 22045J   22161.91667824 -.00722648  00000-0 -18926-1 0  9998,2 52339  53.2176 231.5822 0001449  45.8673 288.7440 15.40605521  1308,6822.458000000001,93.47,445.312,443.334,0.0
52339.0,STARLINK-3792,PAYLOAD,2022-06-11 14:00:01,15.39583079,0.0001799,53.2177,228.4448,33.7284,39.1703,-0.019449,-0.00718238,0.0,0 STARLINK-3792,1 52339U 22045J   22162.58334491 -.00718238  00000-0 -19449-1 0  9994,2 52339  53.2177 228.4448 0001799  33.7284  39.1703 15.39583079  9220,6825.478,93.532,448.571,446.115,0.0
52339.0,STARLINK-3792,PAYLOAD,2022-06-11 22:00:00,15.39073256,0.0001639,53.2176,226.8755,40.8246,80.2996,-0.019778,-0.00718169,0.0,0 STARLINK-3792,1 52339U 22045J   22162.91667824 -.00718169  00000-0 -19778-1 0  9998,2 52339  53.2176 226.8755 0001639  40.8246  80.2996 15.39073256  1305,6826.985,93.563,449.969,447.732,0.0
52339.0,STARLINK-3792,PAYLOAD,2022-06-12 14:00:01,15.38050923,0.0002046,53.2176,223.7453,34.1639,181.5707,-0.020311,-0.00713586,0.0,0 STARLINK-3792,1 52339U 22045J   22163.58334491 -.00713586  00000-0 -20311-1 0  9996,2 52339  53.2176 223.7453 0002046  34.1639 181.5707 15.38050923  9376,6830.01,93.625,453.273,450.478,0.0
52339.0,STARLINK-3792,PAYLOAD,2022-06-12 22:00:00,15.37544787,0.0001684,53.2176,222.1795,42.7732,219.3476,-0.020861,-0.00720279,0.0,0 STARLINK-3792,1 52339U 22045J   22163.91667824 -.00720279  00000-0 -20861-1 0  9999,2 52339  53.2176 222.1795 0001684  42.7732 219.3476 15.37544787  1307,6831.509,93.656,454.525,452.224,0.0
52339.0,STARLINK-3792,PAYLOAD,2022-06-13 14:00:01,15.36522657,0.0001795,53.2176,219.0569,33.1784,319.876,-0.021438,-0.00716326,0.0,0 STARLINK-3792,1 52339U 22045J   22164.58334491 -.00716326  00000-0 -21438-1 0  9993,2 52339  53.2176 219.0569 0001795  33.1784 319.8760 15.36522657  9531,6834.5390000000025,93.718,457.63,455.177,0.0
52339.0,STARLINK-3792,PAYLOAD,2022-06-13 22:00:00,15.36013463,0.0001505,53.2176,217.4947,41.1589,356.4445,-0.021861,-0.00718312,0.0,0 STARLINK-3792,1 52339U 22045J   22164.91667824 -.00718312  00000-0 -21861-1 0  9996,2 52339  53.2176 217.4947 0001505  41.1589 356.4445 15.36013463  1308,6836.049,93.749,458.943,456.885,0.0
52339.0,STARLINK-3792,PAYLOAD,2022-06-14 14:00:01,15.34989692,0.0001851,53.2174,214.3793,35.4222,89.4386,-0.022356,-0.0071136,0.0,0 STARLINK-3792,1 52339U 22045J   22165.58334491 -.00711360  00000-0 -22356-1 0  9997,2 52339  53.2174 214.3793 0001851  35.4222  89.4386 15.34989692  9685,6839.0880000000025,93.812,462.219,459.687,0.0
52339.0,STARLINK-3792,PAYLOAD,2022-06-14 22:00:00,15.34482211,0.0001746,53.2174,212.8207,41.5725,125.998,-0.022861,-0.00715353,0.0,0 STARLINK-3792,1 52339U 22045J   22165.91667824 -.00715353  00000-0 -22861-1 0  9990,2 52339  53.2174 212.8207 0001746  41.5725 125.9980 15.34482211  1309,6840.596,93.843,463.655,461.267,0.0
52339.0,STARLINK-3792,PAYLOAD,2022-06-15 14:00:01,15.33460371,0.000159,53.2173,209.7125,50.4654,200.6851,-0.02348,-0.00711455,0.0,0 STARLINK-3792,1 52339U 22045J   22166.58334491 -.00711455  00000-0 -23480-1 0  9992,2 52339  53.2173 209.7125 0001590  50.4654 200.6851 15.33460371  9835,6843.634,93.905,466.588,464.411,0.0
52339.0,STARLINK-3792,PAYLOAD,2022-06-15 22:00:00,15.32952389,0.0001597,53.2175,208.1575,43.3422,248.6802,-0.024007,-0.00715464,0.0,0 STARLINK-3792,1 52339U 22045J   22166.91667824 -.00715464  00000-0 -24007-1 0  9998,2 52339  53.2175 208.1575 0001597  43.3422 248.6802 15.32952389  1306,6845.146,93.936,468.104,465.918,0.0
52339.0,STARLINK-3792,PAYLOAD,2022-06-16 02:00:01,15.32698639,0.0001841,53.2174,207.381,37.0797,95.148,-0.024271,-0.00717421,0.0,0 STARLINK-3792,1 52339U 22045J   22167.08334491 -.00717421  00000-0 -24271-1 0  9996,2 52339  53.2174 207.3810 0001841  37.0797  95.1480 15.32698639  1307,6845.901999999999,93.952,469.027,466.506,0.0
52339.0,STARLINK-3792,PAYLOAD,2022-06-19 14:00:01,15.27344533,0.0001465,53.2172,191.1536,47.0019,294.1568,-0.028656,-0.00725373,0.0,0 STARLINK-3792,1 52339U 22045J   22170.58334491 -.00725373  00000-0 -28656-1 0  9991,2 52339  53.2172 191.1536 0001465  47.0019 294.1568 15.27344533  1303,6861.891,94.281,484.762,482.751,0.0
52339.0,STARLINK-3792,PAYLOAD,2022-06-19 22:00:00,15.2683131,0.0001589,53.2173,189.613,39.7198,334.9594,-0.028934,-0.00721325,0.0,0 STARLINK-3792,1 52339U 22045J   22170.91667824 -.00721325  00000-0 -28934-1 0  9999,2 52339  53.2173 189.6130 0001589  39.7198 334.9594 15.26831310  1304,6863.429,94.313,486.384,484.203,0.0
52339.0,STARLINK-3792,PAYLOAD,2022-06-20 14:00:01,15.2581326,0.0001705,53.2172,186.5409,37.7997,42.0744,-0.029923,-0.00723144,0.0,0 STARLINK-3792,1 52339U 22045J   22171.58334491 -.00723144  00000-0 -29923-1 0  9994,2 52339  53.2172 186.5409 0001705  37.7997  42.0744 15.25813260  1300,6866.481,94.376,489.517,487.176,0.0
52339.0,STARLINK-3792,PAYLOAD,2022-06-20 22:00:00,15.25303199,0.0001886,53.2173,185.004,34.4974,77.0575,-0.030452,-0.00724583,0.0,0 STARLINK-3792,1 52339U 22045J   22171.91667824 -.00724583  00000-0 -30452-1 0  9997,2 52339  53.2173 185.0040 0001886  34.4974  77.0575 15.25303199 10658,6868.012,94.407,491.172,488.582,0.0
52339.0,STARLINK-3792,PAYLOAD,2022-06-21 14:00:01,15.24283636,0.00018,53.2172,181.9389,42.6441,130.4297,-0.031379,-0.00724091,0.0,0 STARLINK-3792,1 52339U 22045J   22172.58334491 -.00724091  00000-0 -31379-1 0  9995,2 52339  53.2172 181.9389 0001800  42.6441 130.4297 15.24283636  1303,6871.074000000001,94.471,494.176,491.703,0.0
52339.0,STARLINK-3792,PAYLOAD,2022-06-21 22:00:00,15.23773849,0.0001758,53.2172,180.4056,44.215,158.7009,-0.03193,-0.00725526,0.0,0 STARLINK-3792,1 52339U 22045J   22172.91667824 -.00725526  00000-0 -31930-1 0  9998,2 52339  53.2172 180.4056 0001758  44.2150 158.7009 15.23773849  1308,6872.607,94.502,495.68,493.264,0.0
52339.0,STARLINK-3792,PAYLOAD,2022-06-22 00:00:02,15.23644553,0.0001618,53.2175,180.0228,46.9392,253.405,-0.031861,-0.00721436,0.0,0 STARLINK-3792,1 52339U 22045J   22173.00002315 -.00721436  00000-0 -31861-1 0  9996,2 52339  53.2175 180.0228 0001618  46.9392 253.4050 15.23644553 10825,6872.996,94.51,495.973,493.749,0.0
52339.0,STARLINK-3792,PAYLOAD,2022-06-22 14:00:01,15.22755555,0.0001664,53.2172,177.3477,47.3425,213.4151,-0.033015,-0.00727571,0.0,0 STARLINK-3792,1 52339U 22045J   22173.58334491 -.00727571  00000-0 -33015-1 0  9991,2 52339  53.2172 177.3477 0001664  47.3425 213.4151 15.22755555  1305,6875.67,94.565,498.679,496.391,0.0
